[{"OBJECT_NAME":"STARLINK-35377","OBJECT_ID":"2025-243J","EPOCH":"2026-03-09T21:44:56.321088","MEAN_MOTION":15.30199722,"ECCENTRICITY":0.0001027,"INCLINATION":53.1575,"RA_OF_ASC_NODE":244.4825,"ARG_OF_PERICENTER":79.4953,"MEAN_ANOMALY":280.6163,"EPHEMERIS_TYPE":0,"CLASSIFICATION_TYPE":"U","NORAD_CAT_ID":66185,"ELEMENT_SET_NO":999,"REV_AT_EPOCH":2068,"BSTAR":0.0010294936,"MEAN_MOTION_DOT":0.00030255,"MEAN_MOTION_DDOT":0},{"OBJECT_NAME":"KSLV-II R\/B","OBJECT_ID":"2023-072H","EPOCH":"2026-03-09T20:13:26.441760","MEAN_MOTION":15.33109439,"ECCENTRICITY":0.00241884,"INCLINATION":97.4991,"RA_OF_ASC_NODE":274.152,"ARG_OF_PERICENTER":318.2938,"MEAN_ANOMALY":41.646,"EPHEMERIS_TYPE":0,"CLASSIFICATION_TYPE":"U","NORAD_CAT_ID":56750,"ELEMENT_SET_NO":999,"REV_AT_EPOCH":15516,"BSTAR":0.00028309532,"MEAN_MOTION_DOT":9.057e-5,"MEAN_MOTION_DDOT":0}]
